1 60283U          19281.91666667  .00000000  00000-0  00000-0 0 00000
2 60283 097.6560 171.2910 0000000 000.0000 266.6790 15.01920000000000
1 60283U          19282.35486111  .00000000  00000-0  00000-0 0 00000
2 60283 097.6550 171.7230 0000000 000.0000 112.9300 15.01920000000000
1 60283U          19282.72847222  .00000000  00000-0  00000-0 0 00000
2 60283 097.6540 172.0920 0000000 000.0000 330.4300 15.01920000000000
1 60283U          19282.94791667  .00000000  00000-0  00000-0 0 00000
2 60283 097.6540 172.3080 0000000 000.0000 075.4300 15.01920000000000
1 60283U          19283.27708333  .00000000  00000-0  00000-0 0 00000
2 60283 097.6530 172.6320 0000000 000.0000 052.9300 15.01920000000000
1 60283U          19283.74513889  .00000000  00000-0  00000-0 0 00000
2 60283 097.6530 173.0940 0000000 000.0000 060.4300 15.01920000000000
1 60283U          19283.99236111  .00000000  00000-0  00000-0 0 00000
2 60283 097.6520 173.3370 0000000 000.0000 315.4300 15.01920000000000
1 60283U          19284.37986111  .00000000  00000-0  00000-0 0 00000
2 60283 097.6510 173.7190 0000000 000.0000 247.9300 15.01920000000000
1 60283U          19284.63472222  .00000000  00000-0  00000-0 0 00000
2 60283 097.6510 173.9700 0000000 000.0000 184.1800 15.01920000000000
1 60283U          19284.94375000  .00000000  00000-0  00000-0 0 00000
2 60283 097.6500 174.2750 0000000 000.0000 052.9300 15.01920000000000
1 60283U          19285.27361111  .00000000  00000-0  00000-0 0 00000
2 60283 097.6500 174.6000 0000000 000.0000 034.1800 15.01920000000000
1 60283U          19285.69791667  .00000000  00000-0  00000-0 0 00000
2 60283 097.6490 175.0180 0000000 000.0000 165.4300 15.01920000000000
1 60283U          19286.01597222  .00000000  00000-0  00000-0 0 00000
2 60283 097.6480 175.3320 0000000 000.0000 082.9300 15.01920000000000
1 60283U          19286.28402778  .00000000  00000-0  00000-0 0 00000
2 60283 097.6480 175.5960 0000000 000.0000 090.4300 15.01920000000000
1 60283U          19286.70277778  .00000000  00000-0  00000-0 0 00000
2 60283 097.6470 176.0090 0000000 000.0000 191.6800 15.01920000000000
1 60283U          19287.03958333  .00000000  00000-0  00000-0 0 00000
2 60283 097.6460 176.3410 0000000 000.0000 210.4310 15.01920000000000
1 60283U          19287.35208333  .00000000  00000-0  00000-0 0 00000
2 60283 097.6460 176.6490 0000000 000.0000 097.9310 15.01920000000000
1 60283U          19287.64583333  .00000000  00000-0  00000-0 0 00000
2 60283 097.6450 176.9380 0000000 000.0000 244.1810 15.01920000000000
1 60283U          19288.03750000  .00000000  00000-0  00000-0 0 00000
2 60283 097.6450 177.3240 0000000 000.0000 199.1810 15.01920000000000
1 60283U          19288.27152778  .00000000  00000-0  00000-0 0 00000
2 60283 097.6440 177.5550 0000000 000.0000 022.9310 15.01920000000000
1 60283U          19288.62361111  .00000000  00000-0  00000-0 0 00000
2 60283 097.6430 177.9020 0000000 000.0000 124.1810 15.01920000000000
1 60283U          19288.94375000  .00000000  00000-0  00000-0 0 00000
2 60283 097.6430 178.2170 0000000 000.0000 052.9310 15.01920000000000
1 60283U          19289.39166667  .00000000  00000-0  00000-0 0 00000
2 60283 097.6420 178.6590 0000000 000.0000 311.6810 15.01920000000000
1 60283U          19289.62916667  .00000000  00000-0  00000-0 0 00000
2 60283 097.6420 178.8930 0000000 000.0000 154.1810 15.01920000000000
1 60283U          19289.96944444  .00000000  00000-0  00000-0 0 00000
2 60283 097.6410 179.2280 0000000 000.0000 191.6810 15.01920000000000
1 60283U          19290.29097222  .00000000  00000-0  00000-0 0 00000
2 60283 097.6400 179.5450 0000000 000.0000 127.9310 15.01920000000000
1 60283U          19290.64583333  .00000000  00000-0  00000-0 0 00000
2 60283 097.6400 179.8950 0000000 000.0000 244.1810 15.01920000000000
1 60283U          19290.99652778  .00000000  00000-0  00000-0 0 00000
2 60283 097.6390 180.2410 0000000 000.0000 337.9310 15.01920000000000
1 60283U          19291.34027778  .00000000  00000-0  00000-0 0 00000
2 60283 097.6380 180.5800 0000000 000.0000 034.1810 15.01920000000000
1 60283U          19291.69583333  .00000000  00000-0  00000-0 0 00000
2 60283 097.6380 180.9300 0000000 000.0000 154.1810 15.01920000000000
1 60283U          19291.95763889  .00000000  00000-0  00000-0 0 00000
2 60283 097.6370 181.1880 0000000 000.0000 127.9310 15.01920000000000
1 60283U          19292.27847222  .00000000  00000-0  00000-0 0 00000
2 60283 097.6370 181.5040 0000000 000.0000 060.4310 15.01920000000000
1 60283U          19292.66944444  .00000000  00000-0  00000-0 0 00000
2 60283 097.6360 181.8900 0000000 000.0000 011.6810 15.01920000000000
1 60283U          19293.01666667  .00000000  00000-0  00000-0 0 00000
2 60283 097.6350 182.2320 0000000 000.0000 086.6810 15.01920000000000
1 60283U          19293.37638889  .00000000  00000-0  00000-0 0 00000
2 60283 097.6350 182.5860 0000000 000.0000 229.1810 15.01920000000000
1 60283U          19293.60138889  .00000000  00000-0  00000-0 0 00000
2 60283 097.6340 182.8080 0000000 000.0000 004.1810 15.01920000000000
1 60283U          19294.00138889  .00000000  00000-0  00000-0 0 00000
2 60283 097.6330 183.2020 0000000 000.0000 004.1810 15.01920000000000
1 60283U          19294.37013889  .00000000  00000-0  00000-0 0 00000
2 60283 097.6330 183.5660 0000000 000.0000 195.4310 15.01920000000000
1 60283U          19294.64791667  .00000000  00000-0  00000-0 0 00000
2 60283 097.6320 183.8400 0000000 000.0000 255.4310 15.01920000000000
1 60283U          19294.98819444  .00000000  00000-0  00000-0 0 00000
2 60283 097.6320 184.1750 0000000 000.0000 292.9310 15.01920000000000
1 60283U          19295.28680556  .00000000  00000-0  00000-0 0 00000
2 60283 097.6310 184.4690 0000000 000.0000 105.4310 15.01920000000000
1 60283U          19295.59583333  .00000000  00000-0  00000-0 0 00000
2 60283 097.6310 184.7740 0000000 000.0000 334.1810 15.01920000000000
1 60283U          19295.97708333  .00000000  00000-0  00000-0 0 00000
2 60283 097.6300 185.1500 0000000 000.0000 232.9310 15.01920000000000
1 60283U          19296.40347222  .00000000  00000-0  00000-0 0 00000
2 60283 097.6290 185.5700 0000000 000.0000 015.4310 15.01920000000000
1 60283U          19296.70555556  .00000000  00000-0  00000-0 0 00000
2 60283 097.6280 185.8670 0000000 000.0000 206.6800 15.01920000000000
1 60283U          19296.97777778  .00000000  00000-0  00000-0 0 00000
2 60283 097.6280 186.1360 0000000 000.0000 236.6800 15.01920000000000
1 60283U          19297.39583333  .00000000  00000-0  00000-0 0 00000
2 60283 097.6270 186.5480 0000000 000.0000 334.1800 15.01920000000000
1 60283U          19297.61875000  .00000000  00000-0  00000-0 0 00000
2 60283 097.6270 186.7680 0000000 000.0000 097.9300 15.01920000000000
1 60283U          19298.04305556  .00000000  00000-0  00000-0 0 00000
2 60283 097.6260 187.1860 0000000 000.0000 229.1800 15.01920000000000
1 60283U          19298.32083333  .00000000  00000-0  00000-0 0 00000
2 60283 097.6250 187.4590 0000000 000.0000 289.1800 15.01920000000000
1 60283U          19298.61180556  .00000000  00000-0  00000-0 0 00000
2 60283 097.6250 187.7460 0000000 000.0000 060.4300 15.01920000000000
1 60283U          19298.96805556  .00000000  00000-0  00000-0 0 00000
2 60283 097.6240 188.0970 0000000 000.0000 184.1800 15.01920000000000
1 60283U          19299.35208333  .00000000  00000-0  00000-0 0 00000
2 60283 097.6240 188.4760 0000000 000.0000 097.9300 15.01920000000000
1 60283U          19299.74722222  .00000000  00000-0  00000-0 0 00000
2 60283 097.6230 188.8650 0000000 000.0000 071.6800 15.01920000000000
1 60283U          19300.08194444  .00000000  00000-0  00000-0 0 00000
2 60283 097.6220 189.1950 0000000 000.0000 079.1800 15.01920000000000
1 60283U          19300.39791667  .00000000  00000-0  00000-0 0 00000
2 60283 097.6220 189.5070 0000000 000.0000 345.4300 15.01920000000000
1 60283U          19300.68611111  .00000000  00000-0  00000-0 0 00000
2 60283 097.6210 189.7910 0000000 000.0000 101.6800 15.01920000000000
1 60283U          19301.03125000  .00000000  00000-0  00000-0 0 00000
2 60283 097.6210 190.1310 0000000 000.0000 165.4290 15.01920000000000
1 60283U          19301.38194444  .00000000  00000-0  00000-0 0 00000
2 60283 097.6200 190.4760 0000000 000.0000 259.1790 15.01920000000000
1 60283U          19301.68888889  .00000000  00000-0  00000-0 0 00000
2 60283 097.6190 190.7790 0000000 000.0000 116.6790 15.01920000000000
1 60283U          19302.06805556  .00000000  00000-0  00000-0 0 00000
2 60283 097.6190 191.1530 0000000 000.0000 004.1790 15.01920000000000
1 60283U          19302.26944444  .00000000  00000-0  00000-0 0 00000
2 60283 097.6180 191.3510 0000000 000.0000 011.6790 15.01920000000000
1 60283U          19302.71388889  .00000000  00000-0  00000-0 0 00000
2 60283 097.6170 191.7890 0000000 000.0000 251.6790 15.01920000000000
1 60283U          19302.97638889  .00000000  00000-0  00000-0 0 00000
2 60283 097.6170 192.0480 0000000 000.0000 229.1790 15.01920000000000
1 60283U          19303.34305556  .00000000  00000-0  00000-0 0 00000
2 60283 097.6160 192.4090 0000000 000.0000 049.1790 15.01920000000000
1 60283U          19303.74375000  .00000000  00000-0  00000-0 0 00000
2 60283 097.6160 192.8040 0000000 000.0000 052.9290 15.01920000000000
1 60283U          19304.02847222  .00000000  00000-0  00000-0 0 00000
2 60283 097.6150 193.0850 0000000 000.0000 150.4280 15.01920000000000
1 60283U          19304.34513889  .00000000  00000-0  00000-0 0 00000
2 60283 097.6140 193.3970 0000000 000.0000 060.4280 15.01920000000000
1 60283U          19304.69375000  .00000000  00000-0  00000-0 0 00000
2 60283 097.6140 193.7400 0000000 000.0000 142.9280 15.01920000000000
1 60283U          19304.97013889  .00000000  00000-0  00000-0 0 00000
2 60283 097.6130 194.0130 0000000 000.0000 195.4280 15.01920000000000
1 60283U          19305.38263889  .00000000  00000-0  00000-0 0 00000
2 60283 097.6130 194.4190 0000000 000.0000 262.9280 15.01920000000000
